{"type": "FeatureCollection", "features": [ {"type": "Feature", "properties": {"norad_id": 43010, "name": "FENGYUN 3D", "group": "weather", "lat": 25.19443107295462, "lon": 145.64745956567631, "alt_km": 824.6254134068286, "timestamp": "2025-12-20T22:39:10.292141+00:00", "meta": {"OBJECT_NAME": "FENGYUN 3D", "OBJECT_ID": "2017-072A", "EPOCH": "2025-12-20T13:28:14.994624", "MEAN_MOTION": 14.1968462, "ECCENTRICITY": 0.00013363, "INCLINATION": 98.9895, "RA_OF_ASC_NODE": 320.9884, "ARG_OF_PERICENTER": 157.2317, "MEAN_ANOMALY": 202.8918, "EPHEMERIS_TYPE": 0, "CLASSIFICATION_TYPE": "U", "NORAD_CAT_ID": 43010, "ELEMENT_SET_NO": 999, "REV_AT_EPOCH": 41964, "BSTAR": -0.00011687184, "MEAN_MOTION_DOT": -2.93e-06, "MEAN_MOTION_DDOT": 0}, "tle": {"line1": "1 43010U 17072A   25354.56128466 -.00000293  00000+0 -11687-3 0  9993", "line2": "2 43010  98.9895 320.9884 0001336 157.2317 202.8918 14.19684620419646"}}, "geometry": {"type": "Point", "coordinates": [145.64745956567631, 25.19443107295462]}}, {"type": "Feature", "properties": {"norad_id": 43013, "name": "NOAA 20 (JPSS-1)", "group": "weather", "lat": -57.146275731585305, "lon": -55.0334246689886, "alt_km": 835.0397940417433, "timestamp": "2025-12-20T22:39:10.292151+00:00", "meta": {"OBJECT_NAME": "NOAA 20 (JPSS-1)", "OBJECT_ID": "2017-073A", "EPOCH": "2025-12-20T11:05:06.266112", "MEAN_MOTION": 14.19527634, "ECCENTRICITY": 0.00021265, "INCLINATION": 98.761, "RA_OF_ASC_NODE": 290.6745, "ARG_OF_PERICENTER": 76.1689, "MEAN_ANOMALY": 283.9724, "EPHEMERIS_TYPE": 0, "CLASSIFICATION_TYPE": "U", "NORAD_CAT_ID": 43013, "ELEMENT_SET_NO": 999, "REV_AT_EPOCH": 41911, "BSTAR": 4.5119244e-05, "MEAN_MOTION_DOT": 5.1e-07, "MEAN_MOTION_DDOT": 0}, "tle": {"line1": "1 43013U 17073A   25354.46187808  .00000051  00000+0  45119-4 0  9999", "line2": "2 43013  98.7610 290.6745 0002126  76.1689 283.9724 14.19527634419118"}}, "geometry": {"type": "Point", "coordinates": [-55.0334246689886, -57.146275731585305]}}, {"type": "Feature", "properties": {"norad_id": 43226, "name": "GOES 17", "group": "weather", "lat": -0.459591223819537, "lon": -19.921425052032184, "alt_km": 35779.87060799506, "timestamp": "2025-12-20T22:39:10.292162+00:00", "meta": {"OBJECT_NAME": "GOES 17", "OBJECT_ID": "2018-022A", "EPOCH": "2025-12-20T12:43:03.950112", "MEAN_MOTION": 1.00270686, "ECCENTRICITY": 0.00030892, "INCLINATION": 0.4765, "RA_OF_ASC_NODE": 89.1513, "ARG_OF_PERICENTER": 191.3279, "MEAN_ANOMALY": 270.1446, "EPHEMERIS_TYPE": 0, "CLASSIFICATION_TYPE": "U", "NORAD_CAT_ID": 43226, "ELEMENT_SET_NO": 999, "REV_AT_EPOCH": 2863, "BSTAR": 0, "MEAN_MOTION_DOT": -1.59e-06, "MEAN_MOTION_DDOT": 0}, "tle": {"line1": "1 43226U 18022A   25354.52990683 -.00000159  00000+0  00000+0 0  9995", "line2": "2 43226   0.4765  89.1513 0003089 191.3279 270.1446  1.00270686 28633"}}, "geometry": {"type": "Point", "coordinates": [-19.921425052032184, -0.459591223819537]}}, {"type": "Feature", "properties": {"norad_id": 43491, "name": "FENGYUN 2H", "group": "weather", "lat": 2.393024618329649, "lon": 148.86157941733097, "alt_km": 35787.41360762348, "timestamp": "2025-12-20T22:39:10.292173+00:00", "meta": {"OBJECT_NAME": "FENGYUN 2H", "OBJECT_ID": "2018-050A", "EPOCH": "2025-12-20T13:36:28.939104", "MEAN_MOTION": 1.00271219, "ECCENTRICITY": 0.00023795, "INCLINATION": 2.5701, "RA_OF_ASC_NODE": 81.2474, "ARG_OF_PERICENTER": 165.8321, "MEAN_ANOMALY": 125.7917, "EPHEMERIS_TYPE": 0, "CLASSIFICATION_TYPE": "U", "NORAD_CAT_ID": 43491, "ELEMENT_SET_NO": 999, "REV_AT_EPOCH": 2764, "BSTAR": 0, "MEAN_MOTION_DOT": -1.08e-06, "MEAN_MOTION_DDOT": 0}, "tle": {"line1": "1 43491U 18050A   25354.56700161 -.00000108  00000+0  00000+0 0  9998", "line2": "2 43491   2.5701  81.2474 0002379 165.8321 125.7917  1.00271219 27645"}}, "geometry": {"type": "Point", "coordinates": [148.86157941733097, 2.393024618329649]}}, {"type": "Feature", "properties": {"norad_id": 43689, "name": "METOP-C", "group": "weather", "lat": 38.745217875125505, "lon": -120.36171357981871, "alt_km": 817.6394073034098, "timestamp": "2025-12-20T22:39:10.292183+00:00", "meta": {"OBJECT_NAME": "METOP-C", "OBJECT_ID": "2018-087A", "EPOCH": "2025-12-20T13:32:48.886944", "MEAN_MOTION": 14.21487156, "ECCENTRICITY": 8.696e-05, "INCLINATION": 98.6918, "RA_OF_ASC_NODE": 52.2138, "ARG_OF_PERICENTER": 25.8359, "MEAN_ANOMALY": 334.2861, "EPHEMERIS_TYPE": 0, "CLASSIFICATION_TYPE": "U", "NORAD_CAT_ID": 43689, "ELEMENT_SET_NO": 999, "REV_AT_EPOCH": 36945, "BSTAR": 6.2955532e-05, "MEAN_MOTION_DOT": 9.4e-07, "MEAN_MOTION_DDOT": 0}, "tle": {"line1": "1 43689U 18087A   25354.56445471  .00000094  00000+0  62956-4 0  9993", "line2": "2 43689  98.6918  52.2138 0000869  25.8359 334.2861 14.21487156369452"}}, "geometry": {"type": "Point", "coordinates": [-120.36171357981871, 38.745217875125505]}}, {"type": "Feature", "properties": {"norad_id": 43823, "name": "GEO-KOMPSAT-2A", "group": "weather", "lat": 0.02736390155293083, "lon": -162.16980092685984, "alt_km": 35786.44724699531, "timestamp": "2025-12-20T22:39:10.292193+00:00", "meta": {"OBJECT_NAME": "GEO-KOMPSAT-2A", "OBJECT_ID": "2018-100A", "EPOCH": "2025-12-20T09:00:38.665728", "MEAN_MOTION": 1.00271358, "ECCENTRICITY": 4.272e-05, "INCLINATION": 0.0523, "RA_OF_ASC_NODE": 142.1748, "ARG_OF_PERICENTER": 320.5531, "MEAN_ANOMALY": 249.9154, "EPHEMERIS_TYPE": 0, "CLASSIFICATION_TYPE": "U", "NORAD_CAT_ID": 43823, "ELEMENT_SET_NO": 999, "REV_AT_EPOCH": 2583, "BSTAR": 0, "MEAN_MOTION_DOT": -3.2e-06, "MEAN_MOTION_DDOT": 0}, "tle": {"line1": "1 43823U 18100A   25354.37544752 -.00000320  00000+0  00000+0 0  9990", "line2": "2 43823   0.0523 142.1748 0000427 320.5531 249.9154  1.00271358 25830"}}, "geometry": {"type": "Point", "coordinates": [-162.16980092685984, 0.02736390155293083]}}, {"type": "Feature", "properties": {"norad_id": 44387, "name": "METEOR-M2 2", "group": "weather", "lat": -61.11350734750892, "lon": -8.732817219133278, "alt_km": 819.1169287638586, "timestamp": "2025-12-20T22:39:10.292202+00:00", "meta": {"OBJECT_NAME": "METEOR-M2 2", "OBJECT_ID": "2019-038A", "EPOCH": "2025-12-20T14:30:55.849248", "MEAN_MOTION": 14.24293733, "ECCENTRICITY": 0.00016064, "INCLINATION": 98.8971, "RA_OF_ASC_NODE": 334.4298, "ARG_OF_PERICENTER": 131.5665, "MEAN_ANOMALY": 228.5651, "EPHEMERIS_TYPE": 0, "CLASSIFICATION_TYPE": "U", "NORAD_CAT_ID": 44387, "ELEMENT_SET_NO": 999, "REV_AT_EPOCH": 33587, "BSTAR": -6.051537e-05, "MEAN_MOTION_DOT": -1.85e-06, "MEAN_MOTION_DDOT": 0}, "tle": {"line1": "1 44387U 19038A   25354.60481307 -.00000185  00000+0 -60515-4 0  9991", "line2": "2 44387  98.8971 334.4298 0001606 131.5665 228.5651 14.24293733335876"}}, "geometry": {"type": "Point", "coordinates": [-8.732817219133278, -61.11350734750892]}}, {"type": "Feature", "properties": {"norad_id": 47719, "name": "ARKTIKA-M 1", "group": "weather", "lat": 46.29651187951029, "lon": -128.99084005887508, "alt_km": 23821.269909537215, "timestamp": "2025-12-20T22:39:10.292234+00:00", "meta": {"OBJECT_NAME": "ARKTIKA-M 1", "OBJECT_ID": "2021-016A", "EPOCH": "2025-12-20T01:15:32.338368", "MEAN_MOTION": 2.00630446, "ECCENTRICITY": 0.72079263, "INCLINATION": 63.1764, "RA_OF_ASC_NODE": 82.997, "ARG_OF_PERICENTER": 269.153, "MEAN_ANOMALY": 15.5565, "EPHEMERIS_TYPE": 0, "CLASSIFICATION_TYPE": "U", "NORAD_CAT_ID": 47719, "ELEMENT_SET_NO": 999, "REV_AT_EPOCH": 3519, "BSTAR": 0, "MEAN_MOTION_DOT": -1.14e-06, "MEAN_MOTION_DDOT": 0}, "tle": {"line1": "1 47719U 21016A   25354.05245762 -.00000114  00000+0  00000+0 0  9993", "line2": "2 47719  63.1764  82.9970 7207926 269.1530  15.5565  2.00630446 35191"}}, "geometry": {"type": "Point", "coordinates": [-128.99084005887508, 46.29651187951029]}}, {"type": "Feature", "properties": {"norad_id": 49008, "name": "FENGYUN 3E", "group": "weather", "lat": 52.391174672588186, "lon": -173.10405046338846, "alt_km": 820.7603316441246, "timestamp": "2025-12-20T22:39:10.292248+00:00", "meta": {"OBJECT_NAME": "FENGYUN 3E", "OBJECT_ID": "2021-062A", "EPOCH": "2025-12-20T15:17:36.191616", "MEAN_MOTION": 14.19881225, "ECCENTRICITY": 7.579e-05, "INCLINATION": 98.7468, "RA_OF_ASC_NODE": 355.0647, "ARG_OF_PERICENTER": 210.6836, "MEAN_ANOMALY": 149.4296, "EPHEMERIS_TYPE": 0, "CLASSIFICATION_TYPE": "U", "NORAD_CAT_ID": 49008, "ELEMENT_SET_NO": 999, "REV_AT_EPOCH": 23124, "BSTAR": 9.8757175e-05, "MEAN_MOTION_DOT": 1.66e-06, "MEAN_MOTION_DDOT": 0}, "tle": {"line1": "1 49008U 21062A   25354.63722444  .00000166  00000+0  98757-4 0  9995", "line2": "2 49008  98.7468 355.0647 0000757 210.6836 149.4296 14.19881225231248"}}, "geometry": {"type": "Point", "coordinates": [-173.10405046338846, 52.391174672588186]}}, {"type": "Feature", "properties": {"norad_id": 51850, "name": "GOES 18", "group": "weather", "lat": 0.0060592573592287, "lon": -67.43586200576088, "alt_km": 35784.130931052765, "timestamp": "2025-12-20T22:39:10.292259+00:00", "meta": {"OBJECT_NAME": "GOES 18", "OBJECT_ID": "2022-021A", "EPOCH": "2025-12-20T12:23:44.769696", "MEAN_MOTION": 1.00273029, "ECCENTRICITY": 5.151e-05, "INCLINATION": 0.0209, "RA_OF_ASC_NODE": 180.637, "ARG_OF_PERICENTER": 155.9639, "MEAN_ANOMALY": 161.6967, "EPHEMERIS_TYPE": 0, "CLASSIFICATION_TYPE": "U", "NORAD_CAT_ID": 51850, "ELEMENT_SET_NO": 999, "REV_AT_EPOCH": 480, "BSTAR": 0, "MEAN_MOTION_DOT": 1.2e-06, "MEAN_MOTION_DDOT": 0}, "tle": {"line1": "1 51850U 22021A   25354.51649039  .00000120  00000+0  00000+0 0  9993", "line2": "2 51850   0.0209 180.6370 0000515 155.9639 161.6967  1.00273029  4808"}}, "geometry": {"type": "Point", "coordinates": [-67.43586200576088, 0.0060592573592287]}}]}